IXPE                    
1 49954U 21121A   24060.91667824  .00007690  00000+0  58598-3 0  9992
2 49954   0.2302 115.9069 0009467 114.5444  14.2932 14.96682722  5799
